{
  "version": 1,
  "fetchedAt": "2026-06-16T16:59:36.124Z",
  "source": "celestrak-gp",
  "counts": {
    "station": 25,
    "satellite": 400,
    "debris": 250
  },
  "objects": [
    {
      "id": "20465",
      "name": "COSMOS 2058",
      "noradId": 20465,
      "line1": "1 20465U 90010A   26167.14279115  .00003632  00000+0  20974-3 0  9997",
      "line2": "2 20465  82.4678 310.3843 0009309   4.6314 355.5001 15.12007815957117",
      "category": "satellite"
    },
    {
      "id": "20466",
      "name": "SL-14 R/B",
      "noradId": 20466,
      "line1": "1 20466U 90010B   26167.29110658  .00000322  00000+0  35998-4 0  9996",
      "line2": "2 20466  82.5016 174.7865 0019161 339.3361  20.7076 14.83645733943109",
      "category": "satellite"
    },
    {
      "id": "20511",
      "name": "SL-14 R/B",
      "noradId": 20511,
      "line1": "1 20511U 90018B   26167.26880472  .00000327  00000+0  37896-4 0  9994",
      "line2": "2 20511  82.5210 130.9660 0017381 124.5233 235.7626 14.82215628937182",
      "category": "satellite"
    },
    {
      "id": "20580",
      "name": "HST",
      "noradId": 20580,
      "line1": "1 20580U 90037B   26167.16527473  .00005381  00000+0  16841-3 0  9990",
      "line2": "2 20580  28.4719  87.5586 0001852 131.7056 228.3698 15.30736864788415",
      "category": "satellite"
    },
    {
      "id": "20625",
      "name": "SL-16 R/B",
      "noradId": 20625,
      "line1": "1 20625U 90046B   26167.24125798  .00000149  00000+0  10142-3 0  9998",
      "line2": "2 20625  70.9998  90.9347 0013403 163.1861 196.9708 14.15026298862338",
      "category": "satellite"
    },
    {
      "id": "20663",
      "name": "COSMOS 2084",
      "noradId": 20663,
      "line1": "1 20663U 90055A   26167.26475435  .00001826  00000+0  13796-3 0  9999",
      "line2": "2 20663  62.7910 359.2392 0005580 277.6692  82.3775 15.06113116951163",
      "category": "satellite"
    },
    {
      "id": "20666",
      "name": "SL-6 R/B(2)",
      "noradId": 20666,
      "line1": "1 20666U 90055D   26167.05200829  .00001352  00000+0  11043-3 0  9999",
      "line2": "2 20666  62.7824 279.2394 0040474   4.9851 355.1643 15.04000030952986",
      "category": "satellite"
    },
    {
      "id": "20775",
      "name": "SL-8 R/B",
      "noradId": 20775,
      "line1": "1 20775U 90078B   26167.25634127  .00019653  00000+0  55362-3 0  9994",
      "line2": "2 20775  82.9006 162.4858 0351195  41.5971 321.1400 14.92280305823988",
      "category": "satellite"
    },
    {
      "id": "21088",
      "name": "SL-8 R/B",
      "noradId": 21088,
      "line1": "1 21088U 91006B   26167.20139528  .00000053  00000+0  37735-4 0  9993",
      "line2": "2 21088  82.9424  96.7670 0023650 117.1802 352.1325 13.77505799777635",
      "category": "satellite"
    },
    {
      "id": "21397",
      "name": "OKEAN-3",
      "noradId": 21397,
      "line1": "1 21397U 91039A   26167.27447800  .00002384  00000+0  16433-3 0  9994",
      "line2": "2 21397  82.5158 241.2661 0014165   1.5296 358.5971 15.05319970879861",
      "category": "satellite"
    },
    {
      "id": "21422",
      "name": "COSMOS 2151",
      "noradId": 21422,
      "line1": "1 21422U 91042A   26167.25945815  .00001493  00000+0  11635-3 0  9993",
      "line2": "2 21422  82.4960 348.5765 0013820  86.8166 273.4640 15.00436248877976",
      "category": "satellite"
    },
    {
      "id": "21423",
      "name": "SL-14 R/B",
      "noradId": 21423,
      "line1": "1 21423U 91042B   26167.27513812  .00000309  00000+0  36075-4 0  9995",
      "line2": "2 21423  82.4927 127.7508 0015434 278.1758  81.7706 14.81902016867676",
      "category": "satellite"
    },
    {
      "id": "21574",
      "name": "ERS-1",
      "noradId": 21574,
      "line1": "1 21574U 91050A   26167.33072172  .00000266  00000+0  99851-4 0  9990",
      "line2": "2 21574  98.7798 188.0078 0030702 269.6532  90.1137 14.39517451829927",
      "category": "satellite"
    },
    {
      "id": "21610",
      "name": "ARIANE 40 R/B",
      "noradId": 21610,
      "line1": "1 21610U 91050F   26167.14756967  .00000241  00000+0  84589-4 0  9996",
      "line2": "2 21610  98.1876 215.6049 0004217 123.7365 236.4228 14.42956560833192",
      "category": "satellite"
    },
    {
      "id": "21819",
      "name": "INTERCOSMOS 25",
      "noradId": 21819,
      "line1": "1 21819U 91086A   26167.28643912  .00000685  00000+0  13657-3 0  9995",
      "line2": "2 21819  82.6051 250.3550 1484049 264.3390  78.7230 12.12194565508637",
      "category": "satellite"
    },
    {
      "id": "21876",
      "name": "SL-8 R/B",
      "noradId": 21876,
      "line1": "1 21876U 92008B   26167.18188269  .00000136  00000+0  12416-3 0  9994",
      "line2": "2 21876  82.9263 194.5350 0033779 217.5762 210.2627 13.75976689722969",
      "category": "satellite"
    },
    {
      "id": "21938",
      "name": "SL-8 R/B",
      "noradId": 21938,
      "line1": "1 21938U 92020B   26167.26426814  .00000071  00000+0  58063-4 0  9994",
      "line2": "2 21938  82.9306  80.5429 0029789  25.0977  87.1859 13.75548747714681",
      "category": "satellite"
    },
    {
      "id": "21949",
      "name": "USA 81",
      "noradId": 21949,
      "line1": "1 21949U 92023A   26167.22700630  .00000153  00000+0  49152-4 0  9996",
      "line2": "2 21949  85.0076  74.5616 0002758  85.3243 274.8265 14.32397968108891",
      "category": "satellite"
    },
    {
      "id": "22219",
      "name": "COSMOS 2219",
      "noradId": 22219,
      "line1": "1 22219U 92076A   26167.27103299  .00000247  00000+0  15442-3 0  9996",
      "line2": "2 22219  71.0578 171.9871 0016552  45.6649 314.5826 14.14098397732314",
      "category": "satellite"
    },
    {
      "id": "22220",
      "name": "SL-16 R/B",
      "noradId": 22220,
      "line1": "1 22220U 92076B   26167.20481950  .00000159  00000+0  10293-3 0  9995",
      "line2": "2 22220  71.0004 340.8506 0014642 299.9595 233.9091 14.16871838735787",
      "category": "satellite"
    },
    {
      "id": "22236",
      "name": "COSMOS 2221",
      "noradId": 22236,
      "line1": "1 22236U 92080A   26167.00234255  .00001232  00000+0  10593-3 0  9995",
      "line2": "2 22236  82.5031 184.8998 0013177 216.4603 143.5723 14.96530569795491",
      "category": "satellite"
    },
    {
      "id": "22285",
      "name": "SL-16 R/B",
      "noradId": 22285,
      "line1": "1 22285U 92093B   26167.25306790 -.00000305  00000+0 -13157-3 0  9995",
      "line2": "2 22285  71.0198 157.3524 0004012 190.2268 169.8774 14.15461666727108",
      "category": "satellite"
    },
    {
      "id": "22286",
      "name": "COSMOS 2228",
      "noradId": 22286,
      "line1": "1 22286U 92094A   26167.28589538  .00001818  00000+0  15303-3 0  9996",
      "line2": "2 22286  82.5174 142.9061 0016972 335.5322  24.5093 14.97583924790810",
      "category": "satellite"
    },
    {
      "id": "22566",
      "name": "SL-16 R/B",
      "noradId": 22566,
      "line1": "1 22566U 93016B   26166.95034820  .00000304  00000+0  18024-3 0  9996",
      "line2": "2 22566  71.0085   8.8054 0010278 185.2477 174.8540 14.15313489716070",
      "category": "satellite"
    },
    {
      "id": "22626",
      "name": "COSMOS 2242",
      "noradId": 22626,
      "line1": "1 22626U 93024A   26167.04438896  .00001449  00000+0  12379-3 0  9992",
      "line2": "2 22626  82.5180 172.6363 0015459 340.3598  19.7027 14.96900411795101",
      "category": "satellite"
    },
    {
      "id": "22803",
      "name": "SL-16 R/B",
      "noradId": 22803,
      "line1": "1 22803U 93059B   26167.29004779 -.00000008  00000+0  19796-4 0  9995",
      "line2": "2 22803  70.9887 163.1956 0015175  55.4218 304.8335 14.17248261693506",
      "category": "satellite"
    },
    {
      "id": "22830",
      "name": "ARIANE 40 R/B",
      "noradId": 22830,
      "line1": "1 22830U 93061H   26167.15797426  .00000165  00000+0  76324-4 0  9994",
      "line2": "2 22830  98.4819 234.0363 0010516 359.2641   0.8526 14.32907611708202",
      "category": "satellite"
    },
    {
      "id": "23087",
      "name": "COSMOS 2278",
      "noradId": 23087,
      "line1": "1 23087U 94023A   26167.18607444  .00000120  00000+0  87538-4 0  9991",
      "line2": "2 23087  71.0549 329.0194 0010607 244.4630 115.5397 14.14397862658738",
      "category": "satellite"
    },
    {
      "id": "23088",
      "name": "SL-16 R/B",
      "noradId": 23088,
      "line1": "1 23088U 94023B   26167.18828885  .00000293  00000+0  17610-3 0  9990",
      "line2": "2 23088  70.9994 224.0293 0002822 187.4356 172.6725 14.15024732660024",
      "category": "satellite"
    },
    {
      "id": "23343",
      "name": "SL-16 R/B",
      "noradId": 23343,
      "line1": "1 23343U 94074B   26167.06387468  .00000342  00000+0  52384-4 0  9997",
      "line2": "2 23343  97.6991 193.8317 0005102 258.3478 155.6821 14.79501544701797",
      "category": "satellite"
    }
  ]
}