OBJECT_NAME,OBJECT_ID,EPOCH,MEAN_MOTION,ECCENTRICITY,INCLINATION,RA_OF_ASC_NODE,ARG_OF_PERICENTER,MEAN_ANOMALY,EPHEMERIS_TYPE,CLASSIFICATION_TYPE,NORAD_CAT_ID,ELEMENT_SET_NO,REV_AT_EPOCH,BSTAR,MEAN_MOTION_DOT,MEAN_MOTION_DDOT
COSMOS 2058,1990-010A,2026-06-16T03:25:37.155360,15.12007815,.00093095,82.4678,310.3843,4.6314,355.5001,0,U,20465,999,95711,.20974401E-3,.3632E-4,0
SL-14 R/B,1990-010B,2026-06-16T06:59:11.608512,14.83645733,.00191618,82.5016,174.7865,339.3361,20.7076,0,U,20466,999,94310,.35998432E-4,.322E-5,0
SL-14 R/B,1990-018B,2026-06-16T06:27:04.727808,14.82215628,.00173813,82.5210,130.9660,124.5233,235.7626,0,U,20511,999,93718,.37896141E-4,.327E-5,0
HST,1990-037B,2026-06-16T03:57:59.736672,15.30736864,.00018526,28.4719,87.5586,131.7056,228.3698,0,U,20580,999,78841,.168413E-3,.5381E-4,0
SL-16 R/B,1990-046B,2026-06-16T05:47:24.689472,14.15026298,.00134036,70.9998,90.9347,163.1861,196.9708,0,U,20625,999,86233,.10142285E-3,.149E-5,0
COSMOS 2084,1990-055A,2026-06-16T06:21:14.775840,15.06113116,.00055806,62.7910,359.2392,277.6692,82.3775,0,U,20663,999,95116,.13796341E-3,.1826E-4,0
SL-6 R/B(2),1990-055D,2026-06-16T01:14:53.516256,15.04000030,.00404748,62.7824,279.2394,4.9851,355.1643,0,U,20666,999,95298,.11043399E-3,.1352E-4,0
SL-8 R/B,1990-078B,2026-06-16T06:09:07.885728,14.92280305,.03511957,82.9006,162.4858,41.5971,321.1400,0,U,20775,999,82398,.55361709E-3,.19653E-3,0
SL-8 R/B,1991-006B,2026-06-16T04:50:00.552192,13.77505799,.00236502,82.9424,96.7670,117.1802,352.1325,0,U,21088,999,77763,.37734651E-4,.53E-6,0
OKEAN-3,1991-039A,2026-06-16T06:35:14.899200,15.05319970,.00141653,82.5158,241.2661,1.5296,358.5971,0,U,21397,999,87986,.16433088E-3,.2384E-4,0
COSMOS 2151,1991-042A,2026-06-16T06:13:37.184160,15.00436248,.00138208,82.4960,348.5765,86.8166,273.4640,0,U,21422,999,87797,.11635289E-3,.1493E-4,0
SL-14 R/B,1991-042B,2026-06-16T06:36:11.933568,14.81902016,.00154341,82.4927,127.7508,278.1758,81.7706,0,U,21423,999,86767,.3607491E-4,.309E-5,0
ERS-1,1991-050A,2026-06-16T07:56:14.356608,14.39517451,.00307021,98.7798,188.0078,269.6532,90.1137,0,U,21574,999,82992,.99851299E-4,.266E-5,0
ARIANE 40 R/B,1991-050F,2026-06-16T03:32:30.019488,14.42956560,.00042179,98.1876,215.6049,123.7365,236.4228,0,U,21610,999,83319,.84589274E-4,.241E-5,0
INTERCOSMOS 25,1991-086A,2026-06-16T06:52:28.339968,12.12194565,.14840492,82.6051,250.3550,264.3390,78.7230,0,U,21819,999,50863,.13657246E-3,.685E-5,0
SL-8 R/B,1992-008B,2026-06-16T04:21:54.664416,13.75976689,.00337792,82.9263,194.5350,217.5762,210.2627,0,U,21876,999,72296,.12416374E-3,.136E-5,0
SL-8 R/B,1992-020B,2026-06-16T06:20:32.767296,13.75548747,.00297899,82.9306,80.5429,25.0977,87.1859,0,U,21938,999,71468,.58063414E-4,.71E-6,0
USA 81,1992-023A,2026-06-16T05:26:53.344320,14.32397968,.00027588,85.0076,74.5616,85.3243,274.8265,0,U,21949,999,10889,.49152076E-4,.153E-5,0
COSMOS 2219,1992-076A,2026-06-16T06:30:17.250336,14.14098397,.00165524,71.0578,171.9871,45.6649,314.5826,0,U,22219,999,73231,.15441988E-3,.247E-5,0
SL-16 R/B,1992-076B,2026-06-16T04:54:56.404800,14.16871838,.00146425,71.0004,340.8506,299.9595,233.9091,0,U,22220,999,73578,.10292714E-3,.159E-5,0
COSMOS 2221,1992-080A,2026-06-16T00:03:22.396320,14.96530569,.00131775,82.5031,184.8998,216.4603,143.5723,0,U,22236,999,79549,.10593416E-3,.1232E-4,0
SL-16 R/B,1992-093B,2026-06-16T06:04:25.066560,14.15461666,.00040122,71.0198,157.3524,190.2268,169.8774,0,U,22285,999,72710,-.13156526E-3,-.305E-5,0
COSMOS 2228,1992-094A,2026-06-16T06:51:41.360832,14.97583924,.00169727,82.5174,142.9061,335.5322,24.5093,0,U,22286,999,79081,.15302598E-3,.1818E-4,0
SL-16 R/B,1993-016B,2026-06-15T22:48:30.084480,14.15313489,.00102787,71.0085,8.8054,185.2477,174.8540,0,U,22566,999,71607,.18024391E-3,.304E-5,0
COSMOS 2242,1993-024A,2026-06-16T01:03:55.206144,14.96900411,.00154594,82.5180,172.6363,340.3598,19.7027,0,U,22626,999,79510,.12379499E-3,.1449E-4,0
SL-16 R/B,1993-059B,2026-06-16T06:57:40.129056,14.17248261,.00151756,70.9887,163.1956,55.4218,304.8335,0,U,22803,999,69350,.19796064E-4,-.8E-7,0
ARIANE 40 R/B,1993-061H,2026-06-16T03:47:28.976064,14.32907611,.00105166,98.4819,234.0363,359.2641,0.8526,0,U,22830,999,70820,.76323813E-4,.165E-5,0
COSMOS 2278,1994-023A,2026-06-16T04:27:56.831616,14.14397862,.00106073,71.0549,329.0194,244.4630,115.5397,0,U,23087,999,65873,.87538114E-4,.12E-5,0
SL-16 R/B,1994-023B,2026-06-16T04:31:08.156640,14.15024732,.0002822,70.9994,224.0293,187.4356,172.6725,0,U,23088,999,66002,.17609572E-3,.293E-5,0
SL-16 R/B,1994-074B,2026-06-16T01:31:58.772352,14.79501544,.00051022,97.6991,193.8317,258.3478,155.6821,0,U,23343,999,70179,.52383788E-4,.342E-5,0
